1 44059C 19010C   21249.19884673 -.00003199  00000+0 -75528-2 0  2497
2 44059  87.3325 243.7841 0002165  86.1510 353.6017 13.23611192    11
1 44059C 19010C   21249.19884673 -.00003199  00000+0 -75531-2 0  2491
2 44059  87.3325 243.7841 0002165  86.1510 353.6017 13.23611192    11
1 44059C 19010C   21249.50307126 -.00000648  00000+0 -15305-2 0  2498
2 44059  87.3254 243.7063 0002166  86.2153   2.3324 13.23610388    18
1 44059C 19010C   21249.92465691  .00001290  00000+0  30451-2 0  2497
2 44059  87.3135 243.5982 0002158  86.3156 209.9349 13.23608105    15
1 44059C 19010C   21250.30255043  .00001541  00000+0  36372-2 0  2508
2 44059  87.3027 243.5009 0002157  86.6682 209.2130 13.23604989    18
1 44059C 19010C   21250.60469163 -.00002446  00000+0 -57748-2 0  2508
2 44059  87.2942 243.4227 0002162  86.5906 208.1601 13.23610216    19
1 44059C 19010C   21250.75613839  .00000550  00000+0  12991-2 0  2508
2 44059  87.2899 243.3835 0002156  86.8162 209.1665 13.23605575    17
1 44059C 19010C   21250.75613839  .00000551  00000+0  13006-2 0  2507
2 44059  87.2900 243.3835 0002156  86.8162 209.1665 13.23605575    10
1 44059C 19010C   21251.28542080  .00002021  00000+0  47725-2 0  2515
2 44059  87.2753 243.2458 0002150  87.0638 209.4973 13.23603491    11
1 44059C 19010C   21251.58761987 -.00001256  00000+0 -29648-2 0  2512
2 44059  87.2669 243.1668 0002157  86.8341 208.8709 13.23609614    17
1 44059C 19010C   21252.42014302  .00003968  00000+0  93679-2 0  2524
2 44059  87.2753 242.9482 0002142  86.5968 213.7981 13.23604936    17
1 44059C 19010C   21252.42014302  .00003966  00000+0  93623-2 0  2521
2 44059  87.2753 242.9482 0002141  86.5944 213.8004 13.23604939    10
1 44059C 19010C   21252.82378885  .00003498  00000+0  82578-2 0  2521
2 44059  87.2745 242.8424 0002148  86.2091 336.4534 13.23605033    19
1 44059C 19010C   21252.82378885  .00003492  00000+0  82446-2 0  2529
2 44059  87.2756 242.8423 0002148  86.2102 336.4523 13.23605043    12
1 44059C 19010C   21253.20023561 -.00001303  00000+0 -30768-2 0  2532
2 44059  87.2699 242.7439 0002140  86.1941 329.2048 13.23609554    19
1 44059C 19010C   21253.51140460 -.00000269  00000+0 -63527-3 0  2534
2 44059  87.2629 242.6624 0002143  86.1306  11.1335 13.23611115    17
1 44059C 19010C   21253.85521247  .00003095  00000+0  73076-2 0  2534
2 44059  87.2533 242.5722 0002134  86.0535 208.5187 13.23607032    12
1 44059C 19010C   21254.23310598 -.00000650  00000+0 -15352-2 0  2542
2 44059  87.2427 242.4726 0002133  86.3696 207.8327 13.23608981    19
1 44059C 19010C   21254.23310598 -.00000657  00000+0 -15515-2 0  2540
2 44059  87.2438 242.4726 0002133  86.3694 207.8329 13.23608986    16
1 44059C 19010C   21254.87569858  .00001629  00000+0  38451-2 0  2547
2 44059  87.2255 242.3024 0002128  86.7971  27.6000 13.23608143    18
1 44059C 19010C   21255.21609210 -.00001609  00000+0 -37991-2 0  2552
2 44059  87.2159 242.2118 0002123  87.0554 208.3866 13.23608257    14
1 44059C 19010C   21255.21609210 -.00001642  00000+0 -38770-2 0  2555
2 44059  87.2159 242.2118 0002123  87.0554 208.3866 13.23608257    14
1 44059C 19010C   21255.59392774 -.00002803  00000+0 -66185-2 0  2551
2 44059  87.2050 242.1108 0002121  87.0452 207.7456 13.23610494    11
1 44059C 19010C   21255.59392774 -.00002827  00000+0 -66730-2 0  2553
2 44059  87.2075 242.1107 0002121  87.0457 207.7450 13.23610522    18
1 44059C 19010C   21256.29167080  .00002168  00000+0  51194-2 0  2566
2 44059  87.1894 241.9235 0002105  87.3789 290.2487 13.23603301    12
1 44059C 19010C   21256.29167080  .00002137  00000+0  50462-2 0  2569
2 44059  87.1894 241.9235 0002105  87.3790 290.2486 13.23603302    14
1 44059C 19010C   21256.57650876 -.00001739  00000+0 -41050-2 0  2562
2 44059  87.1813 241.8467 0002114  87.3524 206.7418 13.23608985    15
1 44059C 19010C   21256.95486524  .00000369  00000+0  87025-3 0  2560
2 44059  87.1706 241.7444 0002102  87.4371 208.4858 13.23607939    13
1 44059C 19010C   21256.95486524  .00000369  00000+0  87029-3 0  2564
2 44059  87.1706 241.7444 0002102  87.4371 208.4858 13.23607939    13
1 44059C 19010C   21257.33264302  .00004294  00000+0  10137-1 0  2571
2 44059  87.1600 241.6419 0002097  87.6649 207.3372 13.23602280    13
1 44059C 19010C   21257.33275876  .00004292  00000+0  10133-1 0  2573
2 44059  87.1599 241.6419 0002096  87.6572 207.8961 13.23602345    15
1 44059C 19010C   21258.01319858 -.00001936  00000+0 -45695-2 0  2585
2 44059  87.1408 241.4563 0002099  87.4221 208.5535 13.23611010    18
1 44059C 19010C   21258.31539765  .00004100  00000+0  96799-2 0  2584
2 44059  87.1313 241.3735 0002090  87.6465 207.4862 13.23604184    11
1 44059C 19010C   21258.31539765  .00004099  00000+0  96778-2 0  2588
2 44059  87.1316 241.3735 0002090  87.6465 207.4862 13.23604185    15
1 44059C 19010C   21258.61806713 -.00001182  00000+0 -27896-2 0  2588
2 44059  87.1228 241.2903 0002102  87.5525 208.9679 13.23609789    10
1 44059C 19010C   21259.00000413 -.00002302  00000+0 -54338-2 0  2592
2 44059  87.1120 241.1850 0002095  87.5539 227.8479 13.23612630    14
1 44059C 19010C   21259.37373098  .00003210  00000+0  75786-2 0  2591
2 44059  87.1013 241.0816 0002081  87.7493 207.4440 13.23606599    11
1 44059C 19010C   21259.37373098  .00003208  00000+0  75726-2 0  2592
2 44059  87.1014 241.0816 0002081  87.7494 207.4439 13.23606599    11
1 44059C 19010C   21260.09167080 -.00004706  00000+0 -11111-1 0  2600
2 44059  87.0807 240.8818 0002087  88.1396  26.0705 13.23609372    14
1 44059C 19010C   21260.12998098 -.00004103  00000+0 -96876-2 0  2608
2 44059  87.0797 240.8711 0002089  88.2458 208.4090 13.23611061    17
1 44059C 19010C   21260.43212219  .00001022  00000+0  24126-2 0  2600
2 44059  87.0710 240.7865 0002077  88.3115 207.2195 13.23607431    18
1 44059C 19010C   21260.80995784  .00002249  00000+0  53098-2 0  2608
2 44059  87.0602 240.6805 0002073  88.6003 206.2860 13.23604208    13
1 44059C 19010C   21261.18779348 -.00001690  00000+0 -39890-2 0  2612
2 44059  87.0445 240.5741 0002081  88.9223 205.3150 13.23605834    10
1 44059C 19010C   21261.18779348 -.00001716  00000+0 -40517-2 0  2619
2 44059  87.0498 240.5739 0002081  88.9219 205.3154 13.23605865    18
1 44059C 19010C   21261.49062913 -.00000472  00000+0 -11152-2 0  2617
2 44059  87.0360 240.4884 0002078  88.7927 207.6222 13.23607068    14
1 44059C 19010C   21262.24653191  .00002074  00000+0  48961-2 0  2622
2 44059  87.0148 240.2736 0002075  89.1356 207.0851 13.23602090    12
1 44059C 19010C   21262.54873098 -.00001009  00000+0 -23816-2 0  2626
2 44059  87.0064 240.1872 0002079  88.9562 206.4077 13.23606494    14
1 44059C 19010C   21263.30486524  .00004346  00000+0  10260-1 0  2639
2 44059  86.9856 239.9701 0002065  89.1565 207.1141 13.23601344    18
1 44059C 19010C   21264.28750414  .00003502  00000+0  82683-2 0  2642
2 44059  86.9586 239.6857 0002055  89.0535 206.7961 13.23603391    11
1 44059C 19010C   21264.55208747 -.00001740  00000+0 -41075-2 0  2643
2 44059  86.9513 239.6086 0002055  89.3577  26.5017 13.23609691    13
1 44059C 19010C   21264.55208747 -.00001830  00000+0 -43204-2 0  2649
2 44059  86.9563 239.6085 0002055  89.3572  26.5022 13.23609720    11
1 44059C 19010C   21264.58959491 -.00001808  00000+0 -42675-2 0  2647
2 44059  86.9553 239.5975 0002065  88.8458 205.6349 13.23605058    17
1 44059C 19010C   21265.34583746  .00002737  00000+0  64617-2 0  2659
2 44059  86.9343 239.3762 0002050  89.5276 206.3797 13.23603081    15
1 44059C 19010C   21265.75011987  .00001404  00000+0  33149-2 0  2653
2 44059  86.9366 239.2570 0002058  89.6437 331.5630 13.23602800    19
1 44059C 19010C   21265.75011987  .00001375  00000+0  32454-2 0  2658
2 44059  86.9389 239.2569 0002058  89.6440 331.5628 13.23602834    10
1 44059C 19010C   21266.12726108 -.00003775  00000+0 -89121-2 0  2660
2 44059  86.9300 239.1462 0002056  89.8148 327.4331 13.23606978    17
1 44059C 19010C   21266.12726108 -.00003867  00000+0 -91300-2 0  2664
2 44059  86.9389 239.1457 0002056  89.8127 327.4353 13.23607067    19
1 44059C 19010C   21266.43843006 -.00000340  00000+0 -80341-3 0  2662
2 44059  86.9389 239.0540 0002060  89.8182   9.2944 13.23605129    15
1 44059C 19010C   21266.43843006 -.00000340  00000+0 -80319-3 0  2667
2 44059  86.9389 239.0540 0002060  89.8182   9.2944 13.23605130    17
1 44059C 19010C   21266.96696015 -.00002637  00000+0 -62249-2 0  2663
2 44059  86.9361 238.8985 0002066  89.7476   6.3577 13.23606768    16
1 44059C 19010C   21267.49687913 -.00001051  00000+0 -24804-2 0  2674
2 44059  86.9249 238.7427 0002067  89.5804  10.1329 13.23604636    15
1 44059C 19010C   21267.49687913 -.00001107  00000+0 -26145-2 0  2676
2 44059  86.9302 238.7425 0002067  89.5819  10.1314 13.23604702    17
1 44059C 19010C   21267.49687913 -.00001136  00000+0 -26813-2 0  2670
2 44059  86.9384 238.7423 0002066  89.5775  10.1359 13.23604721    15
1 44059C 19010C   21267.49687913 -.00001142  00000+0 -26957-2 0  2676
2 44059  86.9391 238.7422 0002066  89.5778  10.1355 13.23604729    19
1 44059C 19010C   21268.24653191  .00002808  00000+0  66291-2 0  2685
2 44059  86.9148 238.5214 0002073  89.0979 340.6531 13.23599350    12
1 44059C 19010C   21268.24653191  .00002823  00000+0  66644-2 0  2684
2 44059  86.9148 238.5214 0002073  89.0980 340.6530 13.23599350    13
1 44059C 19010C   21268.52095322 -.00000616  00000+0 -14533-2 0  2681
2 44059  86.9071 238.4402 0002080  89.0099 207.5988 13.23604848    12
1 44059C 19010C   21268.52095322 -.00000612  00000+0 -14447-2 0  2681
2 44059  86.9071 238.4402 0002080  89.0100 207.5986 13.23604849    14
1 44059C 19010C   21268.89878885  .00001421  00000+0  33558-2 0  2685
2 44059  86.8967 238.3282 0002067  88.9826 206.9728 13.23604326    17
1 44059C 19010C   21269.27662450  .00004088  00000+0  96505-2 0  2691
2 44059  86.8862 238.2158 0002066  89.2261 206.0829 13.23599682    19
